{"type": "FeatureCollection", "features": [ {"type": "Feature", "properties": {"norad_id": 39574, "name": "GPM-CORE", "group": "resource", "lat": -20.431441700773192, "lon": 53.15496451127932, "alt_km": 431.55825078656653, "timestamp": "2025-12-09T14:52:25.822905+00:00", "meta": {"OBJECT_NAME": "GPM-CORE", "OBJECT_ID": "2014-009C", "EPOCH": "2025-12-09T06:14:02.940864", "MEAN_MOTION": 15.4543745, "ECCENTRICITY": 0.00105139, "INCLINATION": 64.9737, "RA_OF_ASC_NODE": 224.3386, "ARG_OF_PERICENTER": 269.8491, "MEAN_ANOMALY": 90.1445, "EPHEMERIS_TYPE": 0, "CLASSIFICATION_TYPE": "U", "NORAD_CAT_ID": 39574, "ELEMENT_SET_NO": 999, "REV_AT_EPOCH": 66847, "BSTAR": 0.00038181556, "MEAN_MOTION_DOT": 0.00018205, "MEAN_MOTION_DDOT": 0}, "tle": {"line1": "1 39574U 14009C   25343.25975626  .00018205  00000+0  38182-3 0  9991", "line2": "2 39574  64.9737 224.3386 0010513 269.8491  90.1445 15.45437450668475"}}, "geometry": {"type": "Point", "coordinates": [53.15496451127932, -20.431441700773192]}}, {"type": "Feature", "properties": {"norad_id": 39634, "name": "SENTINEL-1A", "group": "resource", "lat": -55.25648233667064, "lon": 0.8767261370439852, "alt_km": 703.4544626915613, "timestamp": "2025-12-09T14:52:25.822916+00:00", "meta": {"OBJECT_NAME": "SENTINEL-1A", "OBJECT_ID": "2014-016A", "EPOCH": "2025-12-09T06:54:07.380288", "MEAN_MOTION": 14.59201072, "ECCENTRICITY": 0.00012577, "INCLINATION": 98.18, "RA_OF_ASC_NODE": 348.5797, "ARG_OF_PERICENTER": 83.352, "MEAN_ANOMALY": 276.7823, "EPHEMERIS_TYPE": 0, "CLASSIFICATION_TYPE": "U", "NORAD_CAT_ID": 39634, "ELEMENT_SET_NO": 999, "REV_AT_EPOCH": 62232, "BSTAR": 0.00011274579, "MEAN_MOTION_DOT": 4.86e-06, "MEAN_MOTION_DDOT": 0}, "tle": {"line1": "1 39634U 14016A   25343.28758542  .00000486  00000+0  11275-3 0  9991", "line2": "2 39634  98.1800 348.5797 0001257  83.3520 276.7823 14.59201072622323"}}, "geometry": {"type": "Point", "coordinates": [0.8767261370439852, -55.25648233667064]}}, {"type": "Feature", "properties": {"norad_id": 39731, "name": "KAZEOSAT 1", "group": "resource", "lat": 67.73563597307226, "lon": -103.39692780607399, "alt_km": 744.3500338428266, "timestamp": "2025-12-09T14:52:25.822926+00:00", "meta": {"OBJECT_NAME": "KAZEOSAT 1", "OBJECT_ID": "2014-024A", "EPOCH": "2025-12-09T07:42:05.370336", "MEAN_MOTION": 14.42059422, "ECCENTRICITY": 0.00010839, "INCLINATION": 98.3436, "RA_OF_ASC_NODE": 55.305, "ARG_OF_PERICENTER": 95.7494, "MEAN_ANOMALY": 264.3819, "EPHEMERIS_TYPE": 0, "CLASSIFICATION_TYPE": "U", "NORAD_CAT_ID": 39731, "ELEMENT_SET_NO": 999, "REV_AT_EPOCH": 61119, "BSTAR": 0.00011318257, "MEAN_MOTION_DOT": 3.29e-06, "MEAN_MOTION_DDOT": 0}, "tle": {"line1": "1 39731U 14024A   25343.32089549  .00000329  00000+0  11318-3 0  9991", "line2": "2 39731  98.3436  55.3050 0001083  95.7494 264.3819 14.42059422611190"}}, "geometry": {"type": "Point", "coordinates": [-103.39692780607399, 67.73563597307226]}}, {"type": "Feature", "properties": {"norad_id": 39766, "name": "ALOS-2", "group": "resource", "lat": -63.567837461086, "lon": 94.77921368246633, "alt_km": 639.2060232720951, "timestamp": "2025-12-09T14:52:25.822936+00:00", "meta": {"OBJECT_NAME": "ALOS-2", "OBJECT_ID": "2014-029A", "EPOCH": "2025-12-09T07:02:59.715744", "MEAN_MOTION": 14.79459759, "ECCENTRICITY": 0.00014451, "INCLINATION": 97.9229, "RA_OF_ASC_NODE": 78.1889, "ARG_OF_PERICENTER": 100.7251, "MEAN_ANOMALY": 259.4123, "EPHEMERIS_TYPE": 0, "CLASSIFICATION_TYPE": "U", "NORAD_CAT_ID": 39766, "ELEMENT_SET_NO": 999, "REV_AT_EPOCH": 62350, "BSTAR": 0.00041861308, "MEAN_MOTION_DOT": 3.075e-05, "MEAN_MOTION_DDOT": 0}, "tle": {"line1": "1 39766U 14029A   25343.29374671  .00003075  00000+0  41861-3 0  9990", "line2": "2 39766  97.9229  78.1889 0001445 100.7251 259.4123 14.79459759623504"}}, "geometry": {"type": "Point", "coordinates": [94.77921368246633, -63.567837461086]}}, {"type": "Feature", "properties": {"norad_id": 40010, "name": "KAZEOSAT 2", "group": "resource", "lat": 37.93065381029559, "lon": 14.027670994563135, "alt_km": 609.1401272300172, "timestamp": "2025-12-09T14:52:25.822947+00:00", "meta": {"OBJECT_NAME": "KAZEOSAT 2", "OBJECT_ID": "2014-033A", "EPOCH": "2025-12-09T07:46:11.473824", "MEAN_MOTION": 14.85157941, "ECCENTRICITY": 0.00074983, "INCLINATION": 97.5501, "RA_OF_ASC_NODE": 187.8141, "ARG_OF_PERICENTER": 219.3777, "MEAN_ANOMALY": 140.6894, "EPHEMERIS_TYPE": 0, "CLASSIFICATION_TYPE": "U", "NORAD_CAT_ID": 40010, "ELEMENT_SET_NO": 999, "REV_AT_EPOCH": 62077, "BSTAR": 0.00013695333, "MEAN_MOTION_DOT": 1.123e-05, "MEAN_MOTION_DDOT": 0}, "tle": {"line1": "1 40010U 14033A   25343.32374391  .00001123  00000+0  13695-3 0  9998", "line2": "2 40010  97.5501 187.8141 0007498 219.3777 140.6894 14.85157941620777"}}, "geometry": {"type": "Point", "coordinates": [14.027670994563135, 37.93065381029559]}}, {"type": "Feature", "properties": {"norad_id": 40011, "name": "HODOYOSHI-4", "group": "resource", "lat": -23.414221209630654, "lon": -10.630962445605281, "alt_km": 595.5764400670769, "timestamp": "2025-12-09T14:52:25.822957+00:00", "meta": {"OBJECT_NAME": "HODOYOSHI-4", "OBJECT_ID": "2014-033B", "EPOCH": "2025-12-09T07:30:10.594368", "MEAN_MOTION": 14.87458849, "ECCENTRICITY": 0.00228572, "INCLINATION": 97.5412, "RA_OF_ASC_NODE": 172.3658, "ARG_OF_PERICENTER": 212.3451, "MEAN_ANOMALY": 147.6366, "EPHEMERIS_TYPE": 0, "CLASSIFICATION_TYPE": "U", "NORAD_CAT_ID": 40011, "ELEMENT_SET_NO": 999, "REV_AT_EPOCH": 62057, "BSTAR": 9.6260628e-05, "MEAN_MOTION_DOT": 8.23e-06, "MEAN_MOTION_DDOT": 0}, "tle": {"line1": "1 40011U 14033B   25343.31262262  .00000823  00000+0  96261-4 0  9998", "line2": "2 40011  97.5412 172.3658 0022857 212.3451 147.6366 14.87458849620571"}}, "geometry": {"type": "Point", "coordinates": [-10.630962445605281, -23.414221209630654]}}, {"type": "Feature", "properties": {"norad_id": 40013, "name": "DEIMOS-2", "group": "resource", "lat": -59.98211246378283, "lon": -127.10374326822291, "alt_km": 596.5321112747724, "timestamp": "2025-12-09T14:52:25.822968+00:00", "meta": {"OBJECT_NAME": "DEIMOS-2", "OBJECT_ID": "2014-033D", "EPOCH": "2025-12-09T07:06:12.074976", "MEAN_MOTION": 14.92948939, "ECCENTRICITY": 0.00010407, "INCLINATION": 97.6065, "RA_OF_ASC_NODE": 219.2099, "ARG_OF_PERICENTER": 90.0621, "MEAN_ANOMALY": 270.0718, "EPHEMERIS_TYPE": 0, "CLASSIFICATION_TYPE": "U", "NORAD_CAT_ID": 40013, "ELEMENT_SET_NO": 999, "REV_AT_EPOCH": 60938, "BSTAR": 0.00015128697, "MEAN_MOTION_DOT": 1.516e-05, "MEAN_MOTION_DDOT": 0}, "tle": {"line1": "1 40013U 14033D   25343.29597309  .00001516  00000+0  15129-3 0  9993", "line2": "2 40013  97.6065 219.2099 0001040  90.0621 270.0718 14.92948939609387"}}, "geometry": {"type": "Point", "coordinates": [-127.10374326822291, -59.98211246378283]}}, {"type": "Feature", "properties": {"norad_id": 40015, "name": "HODOYOSHI-3", "group": "resource", "lat": 21.13806155834656, "lon": -27.44252701217937, "alt_km": 618.01860260383, "timestamp": "2025-12-09T14:52:25.822978+00:00", "meta": {"OBJECT_NAME": "HODOYOSHI-3", "OBJECT_ID": "2014-033F", "EPOCH": "2025-12-09T06:04:18.773184", "MEAN_MOTION": 14.84789084, "ECCENTRICITY": 0.00318089, "INCLINATION": 97.6199, "RA_OF_ASC_NODE": 149.2399, "ARG_OF_PERICENTER": 259.9022, "MEAN_ANOMALY": 99.8605, "EPHEMERIS_TYPE": 0, "CLASSIFICATION_TYPE": "U", "NORAD_CAT_ID": 40015, "ELEMENT_SET_NO": 999, "REV_AT_EPOCH": 61943, "BSTAR": 0.00034963832, "MEAN_MOTION_DOT": 2.941e-05, "MEAN_MOTION_DDOT": 0}, "tle": {"line1": "1 40015U 14033F   25343.25299506  .00002941  00000+0  34964-3 0  9990", "line2": "2 40015  97.6199 149.2399 0031808 259.9022  99.8605 14.84789084619432"}}, "geometry": {"type": "Point", "coordinates": [-27.44252701217937, 21.13806155834656]}}, {"type": "Feature", "properties": {"norad_id": 40053, "name": "SPOT 7", "group": "resource", "lat": 28.102753113562578, "lon": -129.8763503861676, "alt_km": 689.0946753138915, "timestamp": "2025-12-09T14:52:25.822989+00:00", "meta": {"OBJECT_NAME": "SPOT 7", "OBJECT_ID": "2014-034A", "EPOCH": "2025-12-09T07:36:24.338304", "MEAN_MOTION": 14.60727062, "ECCENTRICITY": 0.00015372, "INCLINATION": 98.0907, "RA_OF_ASC_NODE": 45.4713, "ARG_OF_PERICENTER": 90.2023, "MEAN_ANOMALY": 269.9354, "EPHEMERIS_TYPE": 0, "CLASSIFICATION_TYPE": "U", "NORAD_CAT_ID": 40053, "ELEMENT_SET_NO": 999, "REV_AT_EPOCH": 60941, "BSTAR": 0.00018131534, "MEAN_MOTION_DOT": 8.38e-06, "MEAN_MOTION_DDOT": 0}, "tle": {"line1": "1 40053U 14034A   25343.31694836  .00000838  00000+0  18132-3 0  9997", "line2": "2 40053  98.0907  45.4713 0001537  90.2023 269.9354 14.60727062609416"}}, "geometry": {"type": "Point", "coordinates": [-129.8763503861676, 28.102753113562578]}}, {"type": "Feature", "properties": {"norad_id": 40072, "name": "SKYSAT-B", "group": "resource", "lat": 31.372195049087978, "lon": 112.3055313982735, "alt_km": 600.6080499081681, "timestamp": "2025-12-09T14:52:25.822999+00:00", "meta": {"OBJECT_NAME": "SKYSAT-B", "OBJECT_ID": "2014-037D", "EPOCH": "2025-12-09T02:54:27.041184", "MEAN_MOTION": 14.87305028, "ECCENTRICITY": 0.00058572, "INCLINATION": 98.3607, "RA_OF_ASC_NODE": 286.636, "ARG_OF_PERICENTER": 161.034, "MEAN_ANOMALY": 199.1094, "EPHEMERIS_TYPE": 0, "CLASSIFICATION_TYPE": "U", "NORAD_CAT_ID": 40072, "ELEMENT_SET_NO": 999, "REV_AT_EPOCH": 61770, "BSTAR": 0.00030935087, "MEAN_MOTION_DOT": 2.731e-05, "MEAN_MOTION_DDOT": 0}, "tle": {"line1": "1 40072U 14037D   25343.12114631  .00002731  00000+0  30935-3 0  9999", "line2": "2 40072  98.3607 286.6360 0005857 161.0340 199.1094 14.87305028617701"}}, "geometry": {"type": "Point", "coordinates": [112.3055313982735, 31.372195049087978]}}]}